[
    {
        "Altitude(m)": 605470.7981266414,
        "Argument of Periapsis(deg)": 0.0,
        "Eccentricity": 0.0,
        "Inclination(deg)": 60.0,
        "Latitude(deg)": 27.988232539528983,
        "Longitude(deg)": 82.26292726401638,
        "Mean Anomaly(deg)": 147.2727,
        "RAAN(deg)": 20.0,
        "Satellite Name": "Test1 97",
        "Satellite Number": 97,
        "Semi-Major Axis(m)": 6980739.136638005,
        "Time(s)": 0
    },
    {
        "Altitude(m)": 605395.8359803503,
        "Argument of Periapsis(deg)": 0.00010418945913296404,
        "Eccentricity": 0.0,
        "Inclination(deg)": 60.0,
        "Latitude(deg)": 27.473923469657233,
        "Longitude(deg)": 82.61611555296932,
        "Mean Anomaly(deg)": 147.8928061454618,
        "RAAN(deg)": 19.99957995086026,
        "Satellite Name": "Test1 97",
        "Satellite Number": 97,
        "Semi-Major Axis(m)": 6980739.136638005,
        "Time(s)": 10
    },
    {
        "Altitude(m)": 605322.6764872414,
        "Argument of Periapsis(deg)": 0.0002083789182659281,
        "Eccentricity": 0.0,
        "Inclination(deg)": 60.0,
        "Latitude(deg)": 26.958468600935024,
        "Longitude(deg)": 82.96565562715402,
        "Mean Anomaly(deg)": 148.51291229092362,
        "RAAN(deg)": 19.999159901720517,
        "Satellite Name": "Test1 97",
        "Satellite Number": 97,
        "Semi-Major Axis(m)": 6980739.136638005,
        "Time(s)": 20
    },
    {
        "Altitude(m)": 605251.3753218487,
        "Argument of Periapsis(deg)": 0.00031256837739889213,
        "Eccentricity": 0.0,
        "Inclination(deg)": 60.0,
        "Latitude(deg)": 26.441902435838468,
        "Longitude(deg)": 83.31165213656946,
        "Mean Anomaly(deg)": 149.13301843638547,
        "RAAN(deg)": 19.99873985258077,
        "Satellite Name": "Test1 97",
        "Satellite Number": 97,
        "Semi-Major Axis(m)": 6980739.136638005,
        "Time(s)": 30
    },
    {
        "Altitude(m)": 605181.9874307826,
        "Argument of Periapsis(deg)": 0.0004167578365318562,
        "Eccentricity": 0.0,
        "Inclination(deg)": 60.0,
        "Latitude(deg)": 25.924258622546244,
        "Longitude(deg)": 83.65420799872958,
        "Mean Anomaly(deg)": 149.75312458184732,
        "RAAN(deg)": 19.998319803441028,
        "Satellite Name": "Test1 97",
        "Satellite Number": 97,
        "Semi-Major Axis(m)": 6980739.136638005,
        "Time(s)": 40
    },
    {
        "Altitude(m)": 605114.5670037633,
        "Argument of Periapsis(deg)": 0.0005209472956648203,
        "Eccentricity": 0.0,
        "Inclination(deg)": 60.0,
        "Latitude(deg)": 25.405569987493333,
        "Longitude(deg)": 83.99342345478506,
        "Mean Anomaly(deg)": 150.37323072730916,
        "RAAN(deg)": 19.997899754301287,
        "Satellite Name": "Test1 97",
        "Satellite Number": 97,
        "Semi-Major Axis(m)": 6980739.136638005,
        "Time(s)": 50
    },
    {
        "Altitude(m)": 605049.1674450155,
        "Argument of Periapsis(deg)": 0.0006251367547977843,
        "Eccentricity": 0.0,
        "Inclination(deg)": 60.0,
        "Latitude(deg)": 24.8858685668088,
        "Longitude(deg)": 84.32939663772149,
        "Mean Anomaly(deg)": 150.99333687277098,
        "RAAN(deg)": 19.997479705161545,
        "Satellite Name": "Test1 97",
        "Satellite Number": 97,
        "Semi-Major Axis(m)": 6980739.136638005,
        "Time(s)": 60
    },
    {
        "Altitude(m)": 604985.8413449785,
        "Argument of Periapsis(deg)": 0.0007293262139307483,
        "Eccentricity": 0.0,
        "Inclination(deg)": 60.0,
        "Latitude(deg)": 24.365185636676927,
        "Longitude(deg)": 84.66222413970003,
        "Mean Anomaly(deg)": 151.6134430182328,
        "RAAN(deg)": 19.9970596560218,
        "Satellite Name": "Test1 97",
        "Satellite Number": 97,
        "Semi-Major Axis(m)": 6980739.136638005,
        "Time(s)": 70
    },
    {
        "Altitude(m)": 604924.6404523912,
        "Argument of Periapsis(deg)": 0.0008335156730637124,
        "Eccentricity": 0.0,
        "Inclination(deg)": 60.0,
        "Latitude(deg)": 23.843551742657926,
        "Longitude(deg)": 84.9920000656187,
        "Mean Anomaly(deg)": 152.23354916369462,
        "RAAN(deg)": 19.99663960688206,
        "Satellite Name": "Test1 97",
        "Satellite Number": 97,
        "Semi-Major Axis(m)": 6980739.136638005,
        "Time(s)": 80
    },
    {
        "Altitude(m)": 604865.6156467485,
        "Argument of Periapsis(deg)": 0.0009377051321966765,
        "Eccentricity": 0.0,
        "Inclination(deg)": 60.0,
        "Latitude(deg)": 23.320996728008442,
        "Longitude(deg)": 85.31881659860261,
        "Mean Anomaly(deg)": 152.85365530915647,
        "RAAN(deg)": 19.996219557742315,
        "Satellite Name": "Test1 97",
        "Satellite Number": 97,
        "Semi-Major Axis(m)": 6980739.136638005,
        "Time(s)": 90
    },
    {
        "Altitude(m)": 604808.8169111301,
        "Argument of Periapsis(deg)": 0.0010418945913296407,
        "Eccentricity": 0.0,
        "Inclination(deg)": 60.0,
        "Latitude(deg)": 22.79754976103637,
        "Longitude(deg)": 85.6427645645191,
        "Mean Anomaly(deg)": 153.47376145461828,
        "RAAN(deg)": 19.995799508602573,
        "Satellite Name": "Test1 97",
        "Satellite Number": 97,
        "Semi-Major Axis(m)": 6980739.136638005,
        "Time(s)": 100
    },
    {
        "Altitude(m)": 604754.2933054282,
        "Argument of Periapsis(deg)": 0.0011460840504626045,
        "Eccentricity": 0.0,
        "Inclination(deg)": 60.0,
        "Latitude(deg)": 22.273239361526514,
        "Longitude(deg)": 85.9639324826171,
        "Mean Anomaly(deg)": 154.09386760008013,
        "RAAN(deg)": 19.99537945946283,
        "Satellite Name": "Test1 97",
        "Satellite Number": 97,
        "Semi-Major Axis(m)": 6980739.136638005,
        "Time(s)": 110
    },
    {
        "Altitude(m)": 604702.0929400197,
        "Argument of Periapsis(deg)": 0.0012502735095955685,
        "Eccentricity": 0.0,
        "Inclination(deg)": 60.0,
        "Latitude(deg)": 21.748093426272852,
        "Longitude(deg)": 86.28240712802415,
        "Mean Anomaly(deg)": 154.71397374554195,
        "RAAN(deg)": 19.99495941032309,
        "Satellite Name": "Test1 97",
        "Satellite Number": 97,
        "Semi-Major Axis(m)": 6980739.136638005,
        "Time(s)": 120
    },
    {
        "Altitude(m)": 604652.2629498284,
        "Argument of Periapsis(deg)": 0.0013544629687285324,
        "Eccentricity": 0.0,
        "Inclination(deg)": 60.0,
        "Latitude(deg)": 21.222139253750434,
        "Longitude(deg)": 86.59827409321343,
        "Mean Anomaly(deg)": 155.33407989100377,
        "RAAN(deg)": 19.994539361183342,
        "Satellite Name": "Test1 97",
        "Satellite Number": 97,
        "Semi-Major Axis(m)": 6980739.136638005,
        "Time(s)": 130
    },
    {
        "Altitude(m)": 604604.8494688572,
        "Argument of Periapsis(deg)": 0.0014586524278614966,
        "Eccentricity": 0.0,
        "Inclination(deg)": 60.0,
        "Latitude(deg)": 20.695403567961186,
        "Longitude(deg)": 86.91161683556061,
        "Mean Anomaly(deg)": 155.95418603646564,
        "RAAN(deg)": 19.9941193120436,
        "Satellite Name": "Test1 97",
        "Satellite Number": 97,
        "Semi-Major Axis(m)": 6980739.136638005,
        "Time(s)": 140
    },
    {
        "Altitude(m)": 604559.8976051607,
        "Argument of Periapsis(deg)": 0.0015628418869944607,
        "Eccentricity": 0.0,
        "Inclination(deg)": 60.0,
        "Latitude(deg)": 20.167912541485553,
        "Longitude(deg)": 87.22251723673773,
        "Mean Anomaly(deg)": 156.57429218192746,
        "RAAN(deg)": 19.99369926290386,
        "Satellite Name": "Test1 97",
        "Satellite Number": 97,
        "Semi-Major Axis(m)": 6980739.136638005,
        "Time(s)": 150
    },
    {
        "Altitude(m)": 604517.4514163027,
        "Argument of Periapsis(deg)": 0.0016670313461274247,
        "Eccentricity": 0.0,
        "Inclination(deg)": 60.0,
        "Latitude(deg)": 19.63969181777193,
        "Longitude(deg)": 87.53105616107167,
        "Mean Anomaly(deg)": 157.19439832738928,
        "RAAN(deg)": 19.99327921376412,
        "Satellite Name": "Test1 97",
        "Satellite Number": 97,
        "Semi-Major Axis(m)": 6980739.136638005,
        "Time(s)": 160
    },
    {
        "Altitude(m)": 604477.5538852889,
        "Argument of Periapsis(deg)": 0.0017712208052603888,
        "Eccentricity": 0.0,
        "Inclination(deg)": 60.0,
        "Latitude(deg)": 19.11076653269434,
        "Longitude(deg)": 87.8373124999992,
        "Mean Anomaly(deg)": 157.8145044728511,
        "RAAN(deg)": 19.992859164624374,
        "Satellite Name": "Test1 97",
        "Satellite Number": 97,
        "Semi-Major Axis(m)": 6980739.136638005,
        "Time(s)": 170
    },
    {
        "Altitude(m)": 604440.2468969846,
        "Argument of Periapsis(deg)": 0.001875410264393353,
        "Eccentricity": 0.0,
        "Inclination(deg)": 60.0,
        "Latitude(deg)": 18.581161335408513,
        "Longitude(deg)": 88.14136372837672,
        "Mean Anomaly(deg)": 158.43461061831295,
        "RAAN(deg)": 19.99243911548463,
        "Satellite Name": "Test1 97",
        "Satellite Number": 97,
        "Semi-Major Axis(m)": 6980739.136638005,
        "Time(s)": 180
    },
    {
        "Altitude(m)": 604405.5712150695,
        "Argument of Periapsis(deg)": 0.0019795997235263173,
        "Eccentricity": 0.0,
        "Inclination(deg)": 60.0,
        "Latitude(deg)": 18.050900408535288,
        "Longitude(deg)": 88.44328645978315,
        "Mean Anomaly(deg)": 159.05471676377476,
        "RAAN(deg)": 19.992019066344888,
        "Satellite Name": "Test1 97",
        "Satellite Number": 97,
        "Semi-Major Axis(m)": 6980739.136638005,
        "Time(s)": 190
    }
]